     2.11           N: GPS NAV DATA                         RINEX VERSION / TYPE
teqc  2019Feb25                         20221121 12:27:32UTCPGM / RUN BY / DATE
OSX ker:10.11.6|Core i5|gcc 4.3 -m64|OSX ker:10.10+|=+      COMMENT
    8.3819D-09  1.4901D-08 -5.9605D-08 -5.9605D-08          ION ALPHA
    8.3968D+04  1.6384D+04 -1.3107D+05 -6.5536D+04          ION BETA
    3.725290298462D-09 1.065814103640D-14   405504     1550 DELTA-UTC: A0,A1,T,W
                                                            END OF HEADER
17 09  9 23  0  0  0.0 8.712941780686D-05 3.183231456205D-12 0.000000000000D+00
    7.800000000000D+01-3.228125000000D+01 4.831272670470D-09-7.933522713580D-01
   -1.562759280205D-06 4.664162755944D-03 7.484108209610D-06 5.153731807709D+03
    2.592000000000D+05 7.450580596924D-08 2.728200282595D+00 5.774199962616D-08
    9.601204485505D-01 2.338750000000D+02-2.645923904597D+00-8.068907530958D-09
   -2.339383158984D-10 1.000000000000D+00 1.550000000000D+03 0.000000000000D+00
    2.000000000000D+00 0.000000000000D+00-1.024454832077D-08 7.800000000000D+01
    2.520180000000D+05 4.000000000000D+00
32 09  9 23  0  0  0.0 1.915455795825D-04-7.162270776462D-12 0.000000000000D+00
    2.000000000000D+01 7.790625000000D+01 4.550189533658D-09-2.824164302922D+00
    4.081055521965D-06 1.327207288705D-02 3.429129719734D-06 5.153717704773D+03
    2.592000000000D+05 9.313225746155D-09-1.394255009803D+00 2.253800630569D-07
    9.620399433623D-01 3.109062500000D+02-1.114440707009D+00-8.043549331830D-09
    6.678849629467D-11 1.000000000000D+00 1.550000000000D+03 0.000000000000D+00
    2.000000000000D+00 0.000000000000D+00-3.259629011154D-09 2.000000000000D+01
    2.520180000000D+05 4.000000000000D+00
11 09  9 23  0  0  0.0-2.087838947773D-05-1.705302565824D-12 0.000000000000D+00
    9.800000000000D+01 2.612500000000D+01 6.029536868698D-09 2.580276646605D+00
    1.337379217148D-06 9.884113213047D-03 1.047365367413D-05 5.153706605911D+03
    2.592000000000D+05-8.381903171539D-08-2.747394369055D+00-1.434236764908D-07
    8.894620466016D-01 1.391250000000D+02 7.283088196371D-01-8.466424089118D-09
   -1.978653847446D-10 1.000000000000D+00 1.550000000000D+03 0.000000000000D+00
    2.000000000000D+00 0.000000000000D+00-1.164153218269D-08 9.800000000000D+01
    2.520180000000D+05 4.000000000000D+00
 9 09  9 23  0  0  0.0 7.899710908532D-05 2.160049916711D-12 0.000000000000D+00
    7.300000000000D+01-8.065625000000D+01 3.693725287056D-09 1.817247943077D+00
   -4.438683390617D-06 2.067271398846D-02 9.747222065926D-06 5.153633979797D+03
    2.592000000000D+05 2.216547727585D-07 5.821665994728D-01-4.414469003677D-07
    9.778958526474D-01 1.983750000000D+02 1.513855930039D+00-7.566743756678D-09
    1.607209803882D-10 1.000000000000D+00 1.550000000000D+03 0.000000000000D+00
    2.800000000000D+00 0.000000000000D+00-5.587935447693D-09 7.300000000000D+01
    2.520180000000D+05 4.000000000000D+00
14 09  9 23  0  0  0.0-4.728836938739D-05 5.115907697473D-12 0.000000000000D+00
    8.900000000000D+01-5.725000000000D+01 3.994809256983D-09-1.294033681354D+00
   -3.064051270485D-06 4.943564068526D-03 4.149973392487D-06 5.153647844315D+03
    2.592000000000D+05 1.881271600723D-07-3.912757838298D-01 1.173466444016D-07
    9.879729956009D-01 3.164375000000D+02-2.153355792918D+00-7.979618097409D-09
   -3.821587755898D-10 1.000000000000D+00 1.550000000000D+03 0.000000000000D+00
    2.000000000000D+00 0.000000000000D+00-8.847564458847D-09 8.900000000000D+01
    2.520180000000D+05 4.000000000000D+00
28 09  9 23  0  0  0.0-2.612080425024D-05 1.136868377216D-13 0.000000000000D+00
    1.800000000000D+01 5.218750000000D+00 4.628049919713D-09-2.383427315886D-01
    3.576278686523D-07 1.510682550725D-02 6.731599569321D-06 5.153647119522D+03
    2.592000000000D+05-9.313225746155D-08 1.693364191187D+00 2.533197402954D-07
    9.673636587850D-01 2.581562500000D+02-2.017303982911D+00-8.306060266464D-09
    5.107355599004D-10 1.000000000000D+00 1.550000000000D+03 0.000000000000D+00
    2.000000000000D+00 0.000000000000D+00-1.024454832077D-08 1.800000000000D+01
    2.520180000000D+05 4.000000000000D+00
27 09  9 23  0  0  0.0 8.502602577209D-05 3.183231456205D-12 0.000000000000D+00
    1.160000000000D+02-6.400000000000D+01 3.886947621256D-09-1.191662448496D+00
   -2.991408109665D-06 2.135803084821D-02 1.026317477226D-05 5.153741659164D+03
    2.592000000000D+05-2.551823854446D-07 5.578690106492D-01 4.190951585770D-07
    9.759503135051D-01 1.933750000000D+02-1.543753923296D+00-7.972474942725D-09
    1.725071856167D-10 1.000000000000D+00 1.550000000000D+03 0.000000000000D+00
    2.000000000000D+00 0.000000000000D+00-4.190951585770D-09 1.160000000000D+02
    2.520180000000D+05 4.000000000000D+00
 4 09  9 23  0  0  0.0-2.778745256364D-04-1.739408617141D-11 0.000000000000D+00
    7.900000000000D+01 6.468750000000D+01 4.980921761099D-09 9.676505282428D-01
    3.602355718613D-06 8.778150891885D-03 1.030601561069D-05 5.153808595657D+03
    2.592000000000D+05 3.725290298462D-08-2.523138151723D+00 7.823109626770D-08
    9.402613356245D-01 1.698437500000D+02 5.168689496436D-01-8.212842097839D-09
   -2.721541934574D-10 1.000000000000D+00 1.550000000000D+03 0.000000000000D+00
    2.000000000000D+00 0.000000000000D+00-6.053596735001D-09 7.900000000000D+01
    2.520180000000D+05 4.000000000000D+00
12 09  9 23  0  0  0.0-2.149571664631D-04 5.684341886081D-12 0.000000000000D+00
    4.300000000000D+01-2.812500000000D+00 4.453399787691D-09 2.754691957417D+00
   -2.514570951462D-07 3.076050779782D-03 6.703659892082D-06 5.153564334869D+03
    2.592000000000D+05 2.980232238770D-08 1.668197511991D+00 7.264316082001D-08
    9.677744988467D-01 2.501875000000D+02-5.891346084840D-01-7.927830225950D-09
    4.771627328860D-10 1.000000000000D+00 1.550000000000D+03 0.000000000000D+00
    2.000000000000D+00 0.000000000000D+00-1.164153218269D-08 4.300000000000D+01
    2.520180000000D+05 4.000000000000D+00
23 09  9 23  0  0  0.0 3.883070312440D-04-3.410605131648D-13 0.000000000000D+00
    7.600000000000D+01-5.968750000000D+01 4.320179952836D-09-1.945478287905D+00
   -3.164634108543D-06 6.393945659511D-03 4.308298230171D-06 5.153773876190D+03
    2.592000000000D+05-5.215406417847D-08-4.258521803269D-01-1.080334186554D-07
    9.698820122788D-01 3.008750000000D+02 2.971783227706D+00-8.148910863418D-09
   -2.632252501025D-10 1.000000000000D+00 1.550000000000D+03 0.000000000000D+00
    2.000000000000D+00 0.000000000000D+00-2.002343535423D-08 7.600000000000D+01
    2.544180000000D+05 4.000000000000D+00
30 09  9 23  0  0  0.0 1.791310496628D-04 3.183231456205D-12 0.000000000000D+00
    1.080000000000D+02-6.875000000000D-01 4.849130557180D-09 2.434895568088D-01
   -2.235174179077D-07 1.191375206690D-02 6.997957825661D-06 5.153663621902D+03
    2.592000000000D+05-1.657754182816D-07 1.618512384303D+00-7.450580596924D-09
    9.529099681822D-01 2.425937500000D+02 1.456446836274D+00-8.339275935744D-09
    4.471614832135D-10 1.000000000000D+00 1.550000000000D+03 0.000000000000D+00
    2.000000000000D+00 0.000000000000D+00-7.916241884232D-09 1.080000000000D+02
    2.550180000000D+05 4.000000000000D+00
 2 09  9 23  0  0  0.0 1.746127381921D-04 3.183231456205D-12 0.000000000000D+00
    1.040000000000D+02 6.640625000000D+01 4.866631286156D-09-1.868089485563D+00
    3.369525074959D-06 9.088689577766D-03 1.090392470360D-05 5.153718170166D+03
    2.592000000000D+05-9.313225746155D-08-2.541360411462D+00-2.626329660416D-07
    9.410822813630D-01 1.594687500000D+02 2.896622121904D+00-8.101766042504D-09
   -1.392915163365D-10 1.000000000000D+00 1.550000000000D+03 0.000000000000D+00
    2.000000000000D+00 0.000000000000D+00-1.722946763039D-08 1.040000000000D+02
    2.551980000000D+05 4.000000000000D+00
31 09  9 23  0  0  0.0-6.401445716619D-05 5.684341886081D-13 0.000000000000D+00
    4.000000000000D+01-6.325000000000D+01 3.802301238252D-09 2.537422314990D+00
   -3.095716238022D-06 7.051463238895D-03 9.318813681602D-06 5.153795095444D+03
    2.592000000000D+05 2.421438694000D-08 6.137709389147D-01 4.097819328308D-08
    9.743392501007D-01 2.059375000000D+02-1.140884643888D+00-7.531742298727D-09
    1.296482575132D-10 1.000000000000D+00 1.550000000000D+03 0.000000000000D+00
    2.000000000000D+00 0.000000000000D+00-1.303851604462D-08 4.000000000000D+01
    2.559780000000D+05 4.000000000000D+00
13 09  9 23  0  0  0.0 3.049317747355D-04 4.547473508865D-13 0.000000000000D+00
    7.000000000000D+01-6.787500000000D+01 3.833373961127D-09-1.263107562437D+00
   -3.566965460777D-06 4.003915702924D-03 4.852190613747D-06 5.153649898529D+03
    2.592000000000D+05-6.146728992462D-08-3.710405839239D-01 4.284083843231D-08
    9.945595428713D-01 3.024062500000D+02 1.660720887325D+00-7.916044020722D-09
   -3.550147877909D-10 1.000000000000D+00 1.550000000000D+03 0.000000000000D+00
    2.000000000000D+00 0.000000000000D+00-1.117587089539D-08 7.000000000000D+01
    2.580780000000D+05 4.000000000000D+00
